GLOBALSTAR M027 [+]     
1 25884U 99043B   17345.80719598 -.00000083  00000-0 -75720-3 0  9996
2 25884  52.0217  93.0376 0021174 235.5314 267.4039 11.04354510838028
